GLOBALSTAR M063         
1 26081U 00008A   25302.25254000 -.00000063  00000+0  29359-3 0  9995
2 26081  51.9916 118.4881 0004248 197.9555 332.7257 11.86176850173485
GLOBALSTAR M062         
1 26082U 00008B   25302.52499168 -.00000073  00000+0  18382-3 0  9997
2 26082  51.9857  60.7293 0007395  45.4336  35.4285 12.43475316513339
GLOBALSTAR M060         
1 26083U 00008C   25302.44255426 -.00000037  00000+0  53918-3 0  9990
2 26083  52.0043  39.9741 0003440  50.1904  28.4486 12.17668854168722
GLOBALSTAR M064         
1 26084U 00008D   25302.45025080 -.00000095  00000+0 -17194-3 0  9994
2 26084  52.0024 215.2152 0001568 348.7821  11.2976 11.88537601183060
GLOBALSTAR M065         
1 31571U 07020A   25302.41486220 -.00000041  00000+0  35065-3 0  9992
2 31571  51.9878 177.7188 0009072 244.4065 286.6546 12.62012034850358
GLOBALSTAR M069         
1 31573U 07020C   25302.42445073 -.00000095  00000+0 -23582-4 0  9998
2 31573  52.0021 185.2724 0002652  46.1418 133.0840 12.23462431850559
GLOBALSTAR M072         
1 31574U 07020D   25302.45668582 -.00000068  00000+0  21819-3 0  9993
2 31574  51.9960 354.5125 0001106 207.2695 166.3403 11.91652584847471
GLOBALSTAR M071         
1 31576U 07020F   25302.54550720 -.00000118  00000+0 -26773-3 0  9990
2 31576  52.0054 214.3359 0001587  39.6357 131.1004 12.18260373511315
